[{"OBJECT_NAME":"GAOFEN-9 04","OBJECT_ID":"2020-054A","EPOCH":"2026-03-09T22:30:58.350240","MEAN_MOTION":15.3498743,"ECCENTRICITY":0.00126493,"INCLINATION":97.2525,"RA_OF_ASC_NODE":139.4278,"ARG_OF_PERICENTER":89.779,"MEAN_ANOMALY":270.4903,"EPHEMERIS_TYPE":0,"CLASSIFICATION_TYPE":"U","NORAD_CAT_ID":46025,"ELEMENT_SET_NO":999,"REV_AT_EPOCH":31112,"BSTAR":0.00016488112,"MEAN_MOTION_DOT":5.53e-5,"MEAN_MOTION_DDOT":0},{"OBJECT_NAME":"GHGSAT-C2","OBJECT_ID":"2021-006DA","EPOCH":"2026-03-09T16:22:36.229728","MEAN_MOTION":15.36517997,"ECCENTRICITY":0.00061235,"INCLINATION":97.2293,"RA_OF_ASC_NODE":117.6581,"ARG_OF_PERICENTER":150.646,"MEAN_ANOMALY":209.513,"EPHEMERIS_TYPE":0,"CLASSIFICATION_TYPE":"U","NORAD_CAT_ID":47509,"ELEMENT_SET_NO":999,"REV_AT_EPOCH":28456,"BSTAR":0.00026516759,"MEAN_MOTION_DOT":9.377e-5,"MEAN_MOTION_DDOT":0}]
